{
  "norad_id": 66891,
  "name": "STARLINK-35855",
  "history": [
    {
      "epoch": "2026-03-28T21:13:55.199424",
      "apogee_km": 475.9223885338861,
      "perigee_km": 474.44344209616065,
      "latitude_deg": 25.52380599045953,
      "longitude_deg": -125.97200063988566,
      "semi_major_axis_km": 6853.3199153150235,
      "eccentricity": 0.0001079,
      "inclination_deg": 53.1601,
      "raan_deg": 294.9635,
      "arg_perigee_deg": 86.1886,
      "mean_anomaly_deg": 273.9238,
      "mean_motion_rev_day": 15.30210769
    }
  ]
}